STARLINK-1261
1 15571C 20025AS  21326.14393366 -.00018384  00000-0 -12318-2 0  3267
2 15571  53.0538 278.1065 0001742  65.4895   7.8244 15.06416106    14
